IRIDIUM 155             
1 43573U 18061E   21364.10918494  .00000158  00000-0  49214-4 0  9998
2 43573  86.3963  17.9213 0001753  88.2145 271.9252 14.34221077179710
IRIDIUM 154             
1 43574U 18061F   21364.57854735  .00000150  00000-0  46614-4 0  9990
2 43574  86.3967  17.7807 0002418  88.9391 271.2082 14.34219177179836
IRIDIUM 163             
1 43575U 18061G   21364.55952123  .00000151  00000-0  46809-4 0  9996
2 43575  86.3965  17.7537 0002377 101.7866 258.3597 14.34215856179804
IRIDIUM 156             
1 43576U 18061H   21364.95274364  .00000146  00000-0  45095-4 0  9995
2 43576  86.3964  17.5945 0001990  99.6425 260.4995 14.34222386179858
IRIDIUM 164             
1 43577U 18061J   21364.58489474  .00000150  00000-0  46663-4 0  9992
2 43577  86.3965  17.7638 0002414  92.6938 267.4534 14.34216361179846
IRIDIUM 159             
1 43578U 18061K   21364.55318066  .00000153  00000-0  47524-4 0  9998
2 43578  86.3964  17.7482 0002358  90.5813 269.5653 14.34216720179809
IRIDIUM 180             
1 43922U 19002A   21364.41312612  .00000129  00000-0  39082-4 0  9996
2 43922  86.3969 314.6749 0002960  91.1321 269.0214 14.34213939155397
IRIDIUM 176             
1 43923U 19002B   21364.90508692  .00000379  00000-0  56209-4 0  9993
2 43923  86.6104 314.5039 0002344  82.3476 277.8007 14.72265121159531
IRIDIUM 168             
1 43924U 19002C   21364.89516394  .00000114  00000-0  33714-4 0  9993
2 43924  86.3972 314.5046 0002403  84.3531 275.7939 14.34219477155448
IRIDIUM 173             
1 43925U 19002D   21364.88247433  .00000120  00000-0  35912-4 0  9997
2 43925  86.3970 314.4650 0002406  84.7808 275.3663 14.34213954155423
IRIDIUM 169             
1 43926U 19002E   21364.90823775  .00000148  00000-0  41871-4 0  9991
2 43926  86.4225 346.0560 0003401 329.8301  30.2700 14.38616932155984
IRIDIUM 172             
1 43927U 19002F   21364.94591996  .00000119  00000-0  35518-4 0  9992
2 43927  86.3969 314.4416 0002443  86.4045 273.7430 14.34216336155449
IRIDIUM 175             
1 43928U 19002G   21364.89887840  .00000378  00000-0  56008-4 0  9997
2 43928  86.6106 314.3318 0002775  92.1206 268.0329 14.72264690159522
IRIDIUM 171             
1 43929U 19002H   21364.92688991  .00000117  00000-0  34702-4 0  9996
2 43929  86.3979 314.5749 0002384  83.4160 276.7307 14.34217750155437
IRIDIUM 170             
1 43930U 19002J   21364.91129380  .00000373  00000-0  55239-4 0  9991
2 43930  86.6104 314.5071 0002588  86.4579 273.6934 14.72264522159542
IRIDIUM 167             
1 43931U 19002K   21364.92053965  .00000121  00000-0  35961-4 0  9999
2 43931  86.3970 314.4602 0002788  86.6909 273.4606 14.34220631155430
